{
    "links": {
        "self": "http://www.neowsapp.com/rest/v1/neo/3331600?api_key=iIulBulltgU6a56xZRHN4H3l9WmuAYTsLGpBGhQ2"
    },
    "id": "3331600",
    "neo_reference_id": "3331600",
    "name": "(2006 JE)",
    "designation": "2006 JE",
    "nasa_jpl_url": "http://ssd.jpl.nasa.gov/sbdb.cgi?sstr=3331600",
    "absolute_magnitude_h": 23.9,
    "estimated_diameter": {
        "kilometers": {
            "estimated_diameter_min": 0.04411182,
            "estimated_diameter_max": 0.0986370281
        },
        "meters": {
            "estimated_diameter_min": 44.1118199997,
            "estimated_diameter_max": 98.6370281305
        },
        "miles": {
            "estimated_diameter_min": 0.0274098057,
            "estimated_diameter_max": 0.0612901888
        },
        "feet": {
            "estimated_diameter_min": 144.7238235278,
            "estimated_diameter_max": 323.6123073718
        }
    },
    "is_potentially_hazardous_asteroid": false,
    "close_approach_data": [
        {
            "close_approach_date": "2006-05-02",
            "close_approach_date_full": "2006-May-02 07:40",
            "epoch_date_close_approach": 1146555600000,
            "relative_velocity": {
                "kilometers_per_second": "25.7000632097",
                "kilometers_per_hour": "92520.2275548343",
                "miles_per_hour": "57488.4713937247"
            },
            "miss_distance": {
                "astronomical": "0.0215591689",
                "lunar": "8.3865167021",
                "kilometers": "3225205.746410243",
                "miles": "2004049.9217896334"
            },
            "orbiting_body": "Earth"
        },
        {
            "close_approach_date": "2006-07-12",
            "close_approach_date_full": "2006-Jul-12 23:58",
            "epoch_date_close_approach": 1152748680000,
            "relative_velocity": {
                "kilometers_per_second": "22.0512161363",
                "kilometers_per_hour": "79384.3780905248",
                "miles_per_hour": "49326.3653751931"
            },
            "miss_distance": {
                "astronomical": "0.1240091365",
                "lunar": "48.2395540985",
                "kilometers": "18551502.680939255",
                "miles": "11527369.234721519"
            },
            "orbiting_body": "Venus"
        }
    ],
    "orbital_data": {
        "orbit_id": "7",
        "orbit_determination_date": "2017-04-06 09:08:41",
        "first_observation_date": "2006-05-01",
        "last_observation_date": "2006-05-02",
        "data_arc_in_days": 1,
        "observations_used": 20,
        "orbit_uncertainty": "9",
        "minimum_orbit_intersection": ".0124315",
        "jupiter_tisserand_invariant": "3.657",
        "epoch_osculation": "2453857.5",
        "eccentricity": ".7570845656730406",
        "semi_major_axis": "1.783363465699774",
        "inclination": "14.99860954292764",
        "ascending_node_longitude": "43.43490988791756",
        "orbital_period": "869.8777549005048",
        "perihelion_distance": ".4332065108332922",
        "perihelion_argument": "286.0079914164739",
        "aphelion_distance": "3.133520420566257",
        "perihelion_time": "2453904.746520102688",
        "mean_anomaly": "340.4469683916528",
        "mean_motion": ".4138512543537525",
        "equinox": "J2000",
        "orbit_class": {
            "orbit_class_type": "APO",
            "orbit_class_description": "Near-Earth asteroid orbits which cross the Earth’s orbit similar to that of 1862 Apollo",
            "orbit_class_range": "a (semi-major axis) > 1.0 AU; q (perihelion) < 1.017 AU"
        }
    },
    "is_sentry_object": false
}